NORAD_CAT_ID,OBJECT_NAME,OBJECT_TYPE,EPOCH,MEAN_MOTION,ECCENTRICITY,INCLINATION,RA_OF_ASC_NODE,ARG_OF_PERICENTER,MEAN_ANOMALY,BSTAR,MEAN_MOTION_DOT,MEAN_MOTION_DDOT,TLE_LINE0,TLE_LINE1,TLE_LINE2,SEMIMAJOR_AXIS,PERIOD,APOGEE,PERIGEE,DECAYED
54004.0,STARLINK-5129,PAYLOAD,2022-11-23 06:00:00,15.50093781,0.000104,53.216,214.3098,75.1101,269.2368,-0.0093119,-0.0050021,0.0,0 STARLINK-5129,1 54004U 22125AS  22327.25001157 -.00500210  00000-0 -93119-2 0  9997,2 54004  53.2160 214.3098 0001040  75.1101 269.2368 15.50093781  7955,6794.589,92.898,417.161,415.747,0.0
54004.0,STARLINK-5129,PAYLOAD,2022-11-23 14:00:01,15.49696287,0.000112,53.2167,212.7108,88.2924,317.0277,-0.010958,-0.0057486,0.0,0 STARLINK-5129,1 54004U 22125AS  22327.58334491 -.00574860  00000-0 -10958-1 0  9994,2 54004  53.2167 212.7108 0001120  88.2924 317.0277 15.49696287  8009,6795.751,92.921,418.377,416.855,0.0
54004.0,STARLINK-5129,PAYLOAD,2022-11-23 22:00:00,15.49133386,0.0001332,53.2172,211.1202,105.0503,0.8103,-0.017721,-0.00902342,0.0,0 STARLINK-5129,1 54004U 22125AS  22327.91667824 -.00902342  00000-0 -17721-1 0  9995,2 54004  53.2172 211.1202 0001332 105.0503   0.8103 15.49133386  8055,6797.397,92.955,420.167,418.357,0.0
54004.0,STARLINK-5129,PAYLOAD,2022-11-24 06:00:02,15.485326,0.0001200999999999,53.2168,209.53,86.1361,79.3971,-0.024534,-0.01208735,0.0,0 STARLINK-5129,1 54004U 22125AS  22328.25002315 -.01208735  00000-0 -24534-1 0  9997,2 54004  53.2168 209.5300 0001201  86.1361  79.3971 15.48532600  8118,6799.155,92.991,421.837,420.203,0.0
54004.0,STARLINK-5129,PAYLOAD,2022-11-24 14:00:01,15.47662136,0.0001317,53.2172,207.9393,92.1974,132.0343,-0.023524,-0.01131084,0.0,0 STARLINK-5129,1 54004U 22125AS  22328.58334491 -.01131084  00000-0 -23524-1 0  9996,2 54004  53.2172 207.9393 0001317  92.1974 132.0343 15.47662136  1303,6801.704000000002,93.044,424.465,422.673,0.0
54004.0,STARLINK-5129,PAYLOAD,2022-11-24 22:00:00,15.46879817,0.0001351999999999,53.2173,206.3539,115.4823,166.4894,-0.025169,-0.01173563,0.0,0 STARLINK-5129,1 54004U 22125AS  22328.91667824 -.01173563  00000-0 -25169-1 0  9997,2 54004  53.2173 206.3539 0001352 115.4823 166.4894 15.46879817  8214,6803.996999999999,93.091,426.782,424.942,0.0
54004.0,STARLINK-5129,PAYLOAD,2022-11-25 14:00:01,15.45232386,0.0001088,53.2173,203.1846,78.7386,315.8228,-0.025967,-0.01146068,0.0,0 STARLINK-5129,1 54004U 22125AS  22329.58334491 -.01146068  00000-0 -25967-1 0  9998,2 54004  53.2173 203.1846 0001088  78.7386 315.8228 15.45232386  1308,6808.831999999999,93.19,431.43800000000016,429.957,0.0
54004.0,STARLINK-5129,PAYLOAD,2022-11-25 22:00:00,15.4442799,0.0001235,53.2174,201.6053,97.3729,352.0059,-0.027015,-0.01158699,0.0,0 STARLINK-5129,1 54004U 22125AS  22329.91667824 -.01158699  00000-0 -27015-1 0  9993,2 54004  53.2174 201.6053 0001235  97.3729 352.0059 15.44427990  1305,6811.196,93.238,433.903,432.22,0.0
54004.0,STARLINK-5129,PAYLOAD,2022-11-26 06:00:00,15.43621868,0.0001317,53.2167,200.0262,77.2926,65.9272,-0.028015,-0.01168101,0.0,0 STARLINK-5129,1 54004U 22125AS  22330.25001157 -.01168101  00000-0 -28015-1 0  9993,2 54004  53.2167 200.0262 0001317  77.2926  65.9272 15.43621868  8425,6813.566999999999,93.287,436.33,434.535,0.0
54004.0,STARLINK-5129,PAYLOAD,2022-11-26 14:00:01,15.42799063,0.0001336,53.217,198.4477,86.1414,109.9507,-0.028488,-0.01156214,0.0,0 STARLINK-5129,1 54004U 22125AS  22330.58334491 -.01156214  00000-0 -28488-1 0  9995,2 54004  53.2170 198.4477 0001336  86.1414 109.9507 15.42799063  1301,6815.99,93.337,438.765,436.944,0.0
54004.0,STARLINK-5129,PAYLOAD,2022-11-26 22:00:00,15.41994178,0.0001424,53.2172,196.8743,102.6607,145.3151,-0.029584,-0.01167463,0.0,0 STARLINK-5129,1 54004U 22125AS  22330.91667824 -.01167463  00000-0 -29584-1 0  9997,2 54004  53.2172 196.8743 0001424 102.6607 145.3151 15.41994178  1309,6818.361,93.386,441.197,439.255,0.0
54004.0,STARLINK-5129,PAYLOAD,2022-11-27 14:00:01,15.40366793,0.0001166,53.2167,193.7282,87.2036,261.6177,-0.031231,-0.01167057,0.0,0 STARLINK-5129,1 54004U 22125AS  22331.58334491 -.01167057  00000-0 -31231-1 0  9993,2 54004  53.2167 193.7282 0001166  87.2036 261.6177 15.40366793  8621,6823.163000000001,93.484,445.824,444.232,0.0
54004.0,STARLINK-5129,PAYLOAD,2022-11-27 22:00:00,15.39572184,0.0001211,53.2171,192.1606,102.0868,295.6804,-0.032879,-0.0119401,0.0,0 STARLINK-5129,1 54004U 22125AS  22331.91667824 -.01194010  00000-0 -32879-1 0  9997,2 54004  53.2171 192.1606 0001211 102.0868 295.6804 15.39572184  1302,6825.51,93.532,448.202,446.549,0.0
54004.0,STARLINK-5129,PAYLOAD,2022-11-28 22:00:01,15.37122336,0.0001446,53.217,187.4641,101.407,77.4282,-0.035211,-0.01181113,0.0,0 STARLINK-5129,1 54004U 22125AS  22332.91668981 -.01181113  00000-0 -35211-1 0  9996,2 54004  53.2170 187.4641 0001446 101.4070  77.4282 15.37122336  8834,6832.761,93.682,455.614,453.638,0.0
54004.0,STARLINK-5129,PAYLOAD,2022-11-29 14:00:01,15.35471336,0.0001291999999999,53.2169,184.341,88.9418,179.0159,-0.035992,-0.01147533,0.0,0 STARLINK-5129,1 54004U 22125AS  22333.58335648 -.01147533  00000-0 -35992-1 0  9995,2 54004  53.2169 184.3410 0001292  88.9418 179.0159 15.35471336  1308,6837.658,93.782,460.406,458.639,0.0
54004.0,STARLINK-5129,PAYLOAD,2022-11-29 22:00:00,15.34667691,0.0001268,53.2172,182.7854,109.8738,201.103,-0.037476,-0.01162883,0.0,0 STARLINK-5129,1 54004U 22125AS  22333.91667824 -.01162883  00000-0 -37476-1 0  9990,2 54004  53.2172 182.7854 0001268 109.8738 201.1030 15.34667691  8983,6840.045,93.831,462.777,461.042,0.0
54004.0,STARLINK-5129,PAYLOAD,2022-11-30 14:00:01,15.33020909,0.0001226,53.2174,179.6726,114.121,280.1739,-0.038462,-0.0113501,0.0,0 STARLINK-5129,1 54004U 22125AS  22334.58335648 -.01135010  00000-0 -38462-1 0  9998,2 54004  53.2174 179.6726 0001226 114.1210 280.1739 15.33020909  1302,6844.941999999999,93.932,467.646,465.968,0.0
54004.0,STARLINK-5129,PAYLOAD,2022-11-30 22:00:00,15.32210406,0.0001230999999999,53.2175,178.1227,103.8637,330.5201,-0.03968,-0.01140754,0.0,0 STARLINK-5129,1 54004U 22125AS  22334.91667824 -.01140754  00000-0 -39680-1 0  9993,2 54004  53.2175 178.1227 0001231 103.8637 330.5201 15.32210406  1303,6847.356,93.982,470.064,468.378,0.0
54004.0,STARLINK-5129,PAYLOAD,2022-12-01 06:00:00,15.31395322,0.0001389,53.2174,176.5715,59.385,54.1773,-0.040615,-0.01138318,0.0,0 STARLINK-5129,1 54004U 22125AS  22335.25001157 -.01138318  00000-0 -40615-1 0  9995,2 54004  53.2174 176.5715 0001389  59.3850  54.1773 15.31395322  9190,6849.785,94.032,472.602,470.699,0.0
54004.0,STARLINK-5129,PAYLOAD,2022-12-01 14:00:01,15.30581008,0.000136,53.2177,175.0227,84.171,67.5909,-0.041599,-0.01136679,0.0,0 STARLINK-5129,1 54004U 22125AS  22335.58334491 -.01136679  00000-0 -41599-1 0  9991,2 54004  53.2177 175.0227 0001360  84.1710  67.5909 15.30581008  1306,6852.215,94.082,475.012,473.148,0.0
54004.0,STARLINK-5129,PAYLOAD,2022-12-01 22:00:00,15.29778507,0.0001424,53.2175,173.4796,85.9544,103.0212,-0.043262,-0.01151503,0.0,0 STARLINK-5129,1 54004U 22125AS  22335.91667824 -.01151503  00000-0 -43262-1 0  9999,2 54004  53.2175 173.4796 0001424  85.9544 103.0212 15.29778507  1305,6854.611,94.131,477.452,475.5,0.0
54004.0,STARLINK-5129,PAYLOAD,2022-12-02 06:00:00,15.28955079,0.0001359,53.2175,171.9327,78.0208,147.2054,-0.043881,-0.01139645,0.0,0 STARLINK-5129,1 54004U 22125AS  22336.25001157 -.01139645  00000-0 -43881-1 0  9998,2 54004  53.2175 171.9327 0001359  78.0208 147.2054 15.28955079  9341,6857.071999999999,94.182,479.869,478.005,0.0
54004.0,STARLINK-5129,PAYLOAD,2022-12-02 14:00:01,15.28182524,0.0001326,53.2171,170.3909,85.4941,174.9756,-0.047218,-0.01208713,0.0,0 STARLINK-5129,1 54004U 22125AS  22336.58334491 -.01208713  00000-0 -47218-1 0  9995,2 54004  53.2171 170.3909 0001326  85.4941 174.9756 15.28182524  1307,6859.3830000000025,94.23,482.157,480.338,0.0
54004.0,STARLINK-5129,PAYLOAD,2022-12-02 20:00:01,15.27535252,0.0001431999999999,53.2173,169.2372,84.4658,111.8294,-0.04603,-0.01143912,0.0,0 STARLINK-5129,1 54004U 22125AS  22336.83334491 -.01143912  00000-0 -46030-1 0  9993,2 54004  53.2173 169.2372 0001432  84.4658 111.8294 15.27535252  1308,6861.32,94.27,484.168,482.203,0.0
54004.0,STARLINK-5129,PAYLOAD,2022-12-03 06:00:00,15.26525779,0.0001178,53.2173,167.3126,73.8821,254.2011,-0.048016,-0.01171428,0.0,0 STARLINK-5129,1 54004U 22125AS  22337.25001157 -.01171428  00000-0 -48016-1 0  9999,2 54004  53.2173 167.3126 0001178  73.8821 254.2011 15.26525779  9494,6864.345,94.332,487.018,485.401,0.0
54004.0,STARLINK-5129,PAYLOAD,2022-12-03 14:00:01,15.25730257,0.000123,53.2172,165.7754,70.2471,290.1583,-0.050217,-0.01193967,0.0,0 STARLINK-5129,1 54004U 22125AS  22337.58334491 -.01193967  00000-0 -50217-1 0  9993,2 54004  53.2172 165.7754 0001230  70.2471 290.1583 15.25730257  1317,6866.73,94.381,489.44,487.751,0.0
54004.0,STARLINK-5129,PAYLOAD,2022-12-03 22:00:00,15.24895592,0.0001258,53.2175,164.2428,77.7146,314.0549,-0.050224,-0.01166653,0.0,0 STARLINK-5129,1 54004U 22125AS  22337.91667824 -.01166653  00000-0 -50224-1 0  9999,2 54004  53.2175 164.2428 0001258  77.7146 314.0549 15.24895592  1303,6869.236,94.433,491.965,490.237,0.0
54004.0,STARLINK-5129,PAYLOAD,2022-12-04 14:00:01,15.23275152,0.0001434,53.217,161.1768,63.4064,28.136,-0.0531809999999999,-0.01175962,0.0,0 STARLINK-5129,1 54004U 22125AS  22338.58334491 -.01175962  00000-0 -53181-1 0  9992,2 54004  53.2170 161.1768 0001434  63.4064  28.1360 15.23275152  9707,6874.107,94.533,496.957,494.986,0.0
54004.0,STARLINK-5129,PAYLOAD,2022-12-04 22:00:00,15.22454373,0.0001435,53.2173,159.6498,77.4596,42.5054,-0.053969,-0.01165436,0.0,0 STARLINK-5129,1 54004U 22125AS  22338.91667824 -.01165436  00000-0 -53969-1 0  9997,2 54004  53.2173 159.6498 0001435  77.4596  42.5054 15.22454373  1309,6876.5769999999975,94.584,499.429,497.455,0.0
